{"spkid": "20153002", "covariance": {"data": [["5.480422626495623E-15", "-7.368750036240947E-15", "1.549381491103089E-13", "4.291628686303623E-13", "-6.77376097139241E-13", "3.323092232101063E-13"], ["-7.368750036240947E-15", "9.907931877857401E-15", "-2.011394462686264E-13", "-5.773384702694078E-13", "9.113394467792844E-13", "-4.469806502945877E-13"], ["1.549381491103089E-13", "-2.011394462686264E-13", "4.357519971428259E-10", "1.185928537553641E-10", "-4.136292217882599E-11", "5.480635699629746E-11"], ["4.291628686303623E-13", "-5.773384702694078E-13", "1.185928537553641E-10", "2.025102345385442E-10", "-1.617063504753079E-10", "1.307325565829835E-10"], ["-6.77376097139241E-13", "9.113394467792844E-13", "-4.136292217882599E-11", "-1.617063504753079E-10", "1.736369772648163E-10", "-1.147130082907355E-10"], ["3.323092232101063E-13", "-4.469806502945877E-13", "5.480635699629746E-11", "1.307325565829835E-10", "-1.147130082907355E-10", "1.404654659524307E-10"]], "elements": [{"units": null, "title": "eccentricity", "value": ".7958622926108473", "sigma": 7.40298765803079e-08, "name": "e", "label": "e"}, {"units": "au", "title": "perihelion distance", "value": ".273647595216071", "sigma": 9.95385949160294e-08, "name": "q", "label": "q"}, {"label": "tp", "sigma": 2.08746735817072e-05, "name": "tp", "title": "time of perihelion passage", "value": "2458415.219319258532", "units": "TDB"}, {"label": "node", "name": "om", "sigma": 1.4230609071243e-05, "value": "213.1502991318331", "title": "longitude of the ascending node", "units": "deg"}, {"label": "peri", "sigma": 1.31771384323311e-05, "name": "w", "units": "deg", "value": "233.3525257443647", "title": "argument of perihelion"}, {"units": "deg", "title": "inclination", "value": "31.46162069384553", "sigma": 1.18518127707297e-05, "name": "i", "label": "i"}], "labels": ["e", "q", "tp", "node", "peri", "i"], "epoch": "2458198.5"}, "elements": [{"name": "e", "sigma": "7.4061E-8", "value": ".7960261699765667", "title": "eccentricity", "units": null, "label": "e"}, {"sigma": "2.6338E-9", "name": "a", "value": "1.340622108895554", "title": "semi-major axis", "units": "au", "label": "a"}, {"label": "q", "value": ".2734518261655184", "title": "perihelion distance", "units": "au", "name": "q", "sigma": "9.959E-8"}, {"sigma": "1.1834E-5", "name": "i", "title": "inclination; angle with respect to x-y ecliptic plane", "value": "31.41869922483397", "units": "deg", "label": "i"}, {"label": "node", "title": "longitude of the ascending node", "value": "213.0211344287033", "units": "deg", "name": "om", "sigma": "1.4269E-5"}, {"name": "w", "sigma": "1.3213E-5", "units": "deg", "title": "argument of perihelion", "value": "233.4747079365904", "label": "peri"}, {"label": "M", "title": "mean anomaly", "value": "328.4554571680402", "units": "deg", "sigma": "1.6766E-5", "name": "ma"}, {"units": "TDB", "value": "2461250.179787519777", "title": "time of perihelion passage", "sigma": "2.6514E-5", "name": "tp", "label": "tp"}, {"label": "period", "value": "566.9672755250579", "title": "sidereal orbital period", "units": "d", "sigma": "1.6708E-6", "name": "per"}, {"name": "n", "sigma": "1.8712E-9", "units": "deg/d", "value": ".634957281558465", "title": "mean motion", "label": "n"}, {"label": "Q", "value": "2.40779239162559", "title": "aphelion distance", "units": "au", "sigma": "4.7305E-9", "name": "ad"}], "epoch": "2461200.5"}